NORAD_CAT_ID,OBJECT_NAME,OBJECT_TYPE,EPOCH,MEAN_MOTION,ECCENTRICITY,INCLINATION,RA_OF_ASC_NODE,ARG_OF_PERICENTER,MEAN_ANOMALY,BSTAR,MEAN_MOTION_DOT,MEAN_MOTION_DDOT,TLE_LINE0,TLE_LINE1,TLE_LINE2,SEMIMAJOR_AXIS,PERIOD,APOGEE,PERIGEE,DECAYED
53135.0,STARLINK-4023,PAYLOAD,2023-02-18 12:43:49,15.08819761,6.65e-05,53.2137,140.2679,112.939,247.1672,0.0010415,0.00016317,0.0,0 STARLINK-4023,1 53135U 22083D   23049.53043181  .00016317  00000-0  10415-2 0  9996,2 53135  53.2137 140.2679 0000665 112.9390 247.1672 15.08819761 33855,6917.942,95.439,540.267,539.347,0.0
53135.0,STARLINK-4023,PAYLOAD,2023-02-19 12:34:36,15.08863681,5.29e-05,53.214,135.8084,90.3693,269.736,0.0013269,0.00020906,0.0,0 STARLINK-4023,1 53135U 22083D   23050.52402901  .00020906  00000-0  13269-2 0  9995,2 53135  53.2140 135.8084 0000529  90.3693 269.7360 15.08863681 34005,6917.808,95.436,540.039,539.307,0.0
53135.0,STARLINK-4023,PAYLOAD,2023-02-19 14:09:59,15.08867923,5.42e-05,53.214,135.5114,84.5089,275.5965,0.0013581,0.00021409,0.0,0 STARLINK-4023,1 53135U 22083D   23050.59026766  .00021409  00000-0  13581-2 0  9999,2 53135  53.2140 135.5114 0000542  84.5089 275.5965 15.08867923 33654,6917.795,95.436,540.035,539.285,0.0
53135.0,STARLINK-4023,PAYLOAD,2023-02-19 22:06:54,15.08871921,5.59e-05,53.2139,134.0244,86.9149,273.1907,0.0010117,0.00015864,0.0,0 STARLINK-4023,1 53135U 22083D   23050.92146316  .00015864  00000-0  10117-2 0  9990,2 53135  53.2139 134.0244 0000559  86.9149 273.1907 15.08871921 33700,6917.783,95.436,540.035,539.261,0.0
53135.0,STARLINK-4023,PAYLOAD,2023-02-20 10:49:59,15.08860485,8.45e-05,53.2135,131.6454,81.8169,278.2919,0.0011625,0.00018272,0.0,0 STARLINK-4023,1 53135U 22083D   23051.45138136  .00018272  00000-0  11625-2 0  9991,2 53135  53.2135 131.6454 0000845  81.8169 278.2919 15.08860485 33786,6917.818,95.436,540.267,539.098,0.0
53135.0,STARLINK-4023,PAYLOAD,2023-02-20 14:00:45,15.08867336,8.6e-05,53.2135,131.0509,77.2812,282.8276,0.0016437,0.00025988,0.0,0 STARLINK-4023,1 53135U 22083D   23051.58385903  .00025988  00000-0  16437-2 0  9999,2 53135  53.2135 131.0509 0000860  77.2812 282.8276 15.08867336 34164,6917.797,95.436,540.257,539.067,0.0
53135.0,STARLINK-4023,PAYLOAD,2023-02-20 21:57:41,15.08848279,7.22e-05,53.2134,129.5633,95.3197,264.7878,0.00055984,8.635e-05,0.0,0 STARLINK-4023,1 53135U 22083D   23051.91505903  .00008635  00000-0  55984-3 0  9991,2 53135  53.2134 129.5633 0000722  95.3197 264.7878 15.08848279 33854,6917.855,95.437,540.22,539.221,0.0
53135.0,STARLINK-4023,PAYLOAD,2023-02-21 10:40:46,15.08848792,8.71e-05,53.2134,127.1847,99.0417,261.0674,2.5371e-05,1.16e-06,0.0,0 STARLINK-4023,1 53135U 22083D   23052.44497825  .00000116  00000-0  25371-4 0  9997,2 53135  53.2134 127.1847 0000871  99.0417 261.0674 15.08848792 33939,6917.854,95.437,540.321,539.116,0.0
53135.0,STARLINK-4023,PAYLOAD,2023-02-21 12:16:09,15.088542,8.36e-05,53.2131,126.8868,96.2015,263.9072,0.00014107,1.959e-05,0.0,0 STARLINK-4023,1 53135U 22083D   23052.51121593  .00001959  00000-0  14107-3 0  9991,2 53135  53.2131 126.8868 0000836  96.2015 263.9072 15.08854200 34305,6917.837,95.437,540.28,539.124,0.0
53135.0,STARLINK-4023,PAYLOAD,2023-02-21 17:02:18,15.08864701,8.59e-05,53.2129,125.9943,93.4161,266.6929,0.00047726,7.321e-05,0.0,0 STARLINK-4023,1 53135U 22083D   23052.70993139  .00007321  00000-0  47726-3 0  9997,2 53135  53.2129 125.9943 0000859  93.4161 266.6929 15.08864701 33972,6917.805,95.436,540.264,539.076,0.0
53135.0,STARLINK-4023,PAYLOAD,2023-02-21 21:48:27,15.08844213,6.3e-05,53.2126,125.1023,80.0841,280.0222,7.4403e-05,8.97e-06,0.0,0 STARLINK-4023,1 53135U 22083D   23052.90865610  .00000897  00000-0  74403-4 0  9995,2 53135  53.2126 125.1023 0000630  80.0841 280.0222 15.08844213 34001,6917.868,95.437,540.168,539.297,0.0
53135.0,STARLINK-4023,PAYLOAD,2023-02-22 12:06:56,15.08849718,0.0001043,53.2128,122.4258,77.2195,282.8913,0.00030916,4.637e-05,0.0,0 STARLINK-4023,1 53135U 22083D   23053.50481597  .00004637  00000-0  30916-3 0  9996,2 53135  53.2128 122.4258 0001043  77.2195 282.8913 15.08849718 34453,6917.851,95.437,540.437,538.994,0.0
53135.0,STARLINK-4023,PAYLOAD,2023-02-22 21:39:15,15.08824826,7.9e-05,53.2123,120.6412,92.3683,267.74,-0.00041917,-6.95e-05,0.0,0 STARLINK-4023,1 53135U 22083D   23053.90225951 -.00006950  00000-0 -41917-3 0  9995,2 53135  53.2123 120.6412 0000790  92.3683 267.7400 15.08824826 34511,6917.927,95.439,540.338,539.245,0.0
53135.0,STARLINK-4023,PAYLOAD,2023-02-23 10:22:20,15.08842895,9.66e-05,53.2119,118.262,88.5484,271.5618,0.0019058,0.00030175,0.0,0 STARLINK-4023,1 53135U 22083D   23054.43218360  .00030175  00000-0  19058-2 0  9994,2 53135  53.2119 118.2620 0000966  88.5484 271.5618 15.08842895 34230,6917.872,95.437,540.405,539.068,0.0
53135.0,STARLINK-4023,PAYLOAD,2023-02-23 11:57:43,15.08844666,9.93e-05,53.212,117.9647,88.0807,272.0299,0.0021054,0.00033383,0.0,0 STARLINK-4023,1 53135U 22083D   23054.49842408  .00033383  00000-0  21054-2 0  9999,2 53135  53.2120 117.9647 0000993  88.0807 272.0299 15.08844666 34601,6917.866,95.437,540.418,539.044,0.0
53135.0,STARLINK-4023,PAYLOAD,2023-02-23 21:30:02,15.08838369,7.63e-05,53.212,116.1801,82.4254,277.6825,0.0007242,0.00011256,0.0,0 STARLINK-4023,1 53135U 22083D   23054.89586542  .00011256  00000-0  72420-3 0  9996,2 53135  53.2120 116.1801 0000763  82.4254 277.6825 15.08838369 34309,6917.885,95.438,540.278,539.223,0.0
53135.0,STARLINK-4023,PAYLOAD,2023-02-24 11:48:31,15.08853142,0.0001235,53.2126,113.5039,75.7601,284.3528,0.0012648,0.00019906,0.0,0 STARLINK-4023,1 53135U 22083D   23055.49202598  .00019906  00000-0  12648-2 0  9994,2 53135  53.2126 113.5039 0001235  75.7601 284.3528 15.08853142 34755,6917.84,95.437,540.56,538.851,0.0
53135.0,STARLINK-4023,PAYLOAD,2023-02-24 14:59:17,15.08861591,0.0001177,53.2126,112.9093,74.5818,285.5305,0.0014233,0.0002245,0.0,0 STARLINK-4023,1 53135U 22083D   23055.62450371  .00022450  00000-0  14233-2 0  9993,2 53135  53.2126 112.9093 0001177  74.5818 285.5305 15.08861591 34775,6917.814,95.436,540.494,538.865,0.0
53135.0,STARLINK-4023,PAYLOAD,2023-02-25 03:42:22,15.08839825,0.0001158,53.2125,110.5297,92.2691,267.8434,0.00086733,0.00013542,0.0,0 STARLINK-4023,1 53135U 22083D   23056.15442945  .00013542  00000-0  86733-3 0  9997,2 53135  53.2125 110.5297 0001158  92.2691 267.8434 15.08839825 34499,6917.881,95.438,540.547,538.945,0.0
53135.0,STARLINK-4023,PAYLOAD,2023-02-25 14:50:04,15.08841711,0.0001243,53.2128,108.4486,76.9395,283.1736,0.0011262,0.00017682,0.0,0 STARLINK-4023,1 53135U 22083D   23056.61811177  .00017682  00000-0  11262-2 0  9998,2 53135  53.2128 108.4486 0001243  76.9395 283.1736 15.08841711 34564,6917.875,95.437,540.6,538.88,0.0
53135.0,STARLINK-4023,PAYLOAD,2023-02-26 08:19:19,15.08859472,0.0001418,53.2137,105.1765,87.1833,272.9321,0.0010273,0.00016108,0.0,0 STARLINK-4023,1 53135U 22083D   23057.34674847  .00016108  00000-0  10273-2 0  9993,2 53135  53.2137 105.1765 0001418  87.1833 272.9321 15.08859472 35035,6917.821,95.436,540.667,538.705,0.0
53135.0,STARLINK-4023,PAYLOAD,2023-02-26 14:40:51,15.08871793,0.0001461,53.2134,103.9865,88.0368,272.0791,0.0011868,0.00018667,0.0,0 STARLINK-4023,1 53135U 22083D   23057.61170317  .00018667  00000-0  11868-2 0  9999,2 53135  53.2134 103.9865 0001461  88.0368 272.0791 15.08871793 35076,6917.783,95.436,540.659,538.638,0.0
53135.0,STARLINK-4023,PAYLOAD,2023-02-27 14:31:37,15.08896092,0.0001851,53.2133,99.5222,132.3756,227.7393,0.0028387,0.0004525,0.0,0 STARLINK-4023,1 53135U 22083D   23058.60529939  .00045250  00000-0  28387-2 0  9999,2 53135  53.2133  99.5222 0001851 132.3756 227.7393 15.08896092 34869,6917.709,95.434,540.854,538.293,0.0
53135.0,STARLINK-4023,PAYLOAD,2023-02-27 19:17:47,15.08841161,0.0001697,53.2144,98.6349,86.8984,273.2203,0.0023476,0.00037273,0.0,0 STARLINK-4023,1 53135U 22083D   23058.80402666  .00037273  00000-0  23476-2 0  9998,2 53135  53.2144  98.6349 0001697  86.8984 273.2203 15.08841161 35252,6917.877,95.437,540.916,538.568,0.0
53135.0,STARLINK-4023,PAYLOAD,2023-02-28 03:14:43,15.08854245,0.0001313,53.2147,97.1481,107.1006,253.013,0.0018584,0.00029424,0.0,0 STARLINK-4023,1 53135U 22083D   23059.13522251  .00029424  00000-0  18584-2 0  9991,2 53135  53.2147  97.1481 0001313 107.1006 253.0130 15.08854245 34940,6917.837,95.437,540.61,538.794,0.0
53135.0,STARLINK-4023,PAYLOAD,2023-02-28 11:11:38,15.08875662,0.0001268,53.2147,95.6613,99.7939,260.3196,0.0015355,0.00024258,0.0,0 STARLINK-4023,1 53135U 22083D   23059.46641524  .00024258  00000-0  15355-2 0  9995,2 53135  53.2147  95.6613 0001268  99.7939 260.3196 15.08875662 35355,6917.771,95.435,540.514,538.759,0.0
53135.0,STARLINK-4023,PAYLOAD,2023-02-28 19:08:34,15.0883688,0.0001337,53.2147,94.1724,87.8679,272.2466,-8.5588e-05,-1.65e-05,0.0,0 STARLINK-4023,1 53135U 22083D   23059.79762135 -.00001650  00000-0 -85588-4 0  9993,2 53135  53.2147  94.1724 0001337  87.8679 272.2466 15.08836880 35405,6917.89,95.438,540.68,538.83,0.0
53135.0,STARLINK-4023,PAYLOAD,2023-03-01 11:02:27,15.08817909,0.0001805,53.2142,91.1999,91.9035,268.2163,0.00025446,3.762e-05,0.0,0 STARLINK-4023,1 53135U 22083D   23060.46003746  .00003762  00000-0  25446-3 0  9995,2 53135  53.2142  91.1999 0001805  91.9035 268.2163 15.08817909 35144,6917.948,95.439,541.062,538.564,0.0
53135.0,STARLINK-4023,PAYLOAD,2023-03-01 18:59:23,15.08828366,0.0001753,53.2142,89.7136,89.1154,271.0039,0.0014263,0.00022477,0.0,0 STARLINK-4023,1 53135U 22083D   23060.79124299  .00022477  00000-0  14263-2 0  9996,2 53135  53.2142  89.7136 0001753  89.1154 271.0039 15.08828366 35551,6917.916,95.438,540.994,538.568,0.0
53135.0,STARLINK-4023,PAYLOAD,2023-03-02 01:20:55,15.08840848,0.0001721,53.2144,88.5244,90.0349,270.084,0.0013306,0.00020952,0.0,0 STARLINK-4023,1 53135U 22083D   23061.05620317  .00020952  00000-0  13306-2 0  9991,2 53135  53.2144  88.5244 0001721  90.0349 270.0840 15.08840848 35235,6917.878,95.438,540.933,538.552,0.0
